OBJECT_NAME,OBJECT_ID,EPOCH,MEAN_MOTION,ECCENTRICITY,INCLINATION,RA_OF_ASC_NODE,ARG_OF_PERICENTER,MEAN_ANOMALY,EPHEMERIS_TYPE,CLASSIFICATION_TYPE,NORAD_CAT_ID,ELEMENT_SET_NO,REV_AT_EPOCH,BSTAR,MEAN_MOTION_DOT,MEAN_MOTION_DDOT
SAUDISAT 1C (SO-50),2002-058C,2026-06-14T06:08:12.638112,14.83041207,.0075327,64.5509,138.0554,263.0161,96.2373,0,U,27607,999,26402,.12706547E-3,.931E-5,0
SAUDISAT 2,2004-025F,2026-06-14T06:45:12.064896,14.56682460,.00236993,98.5507,165.1882,307.6002,52.3044,0,U,28371,999,16532,.63780809E-4,.236E-5,0
SAUDISAT 3,2007-012B,2026-06-14T03:08:02.580288,14.71424084,.00134824,98.1455,115.5291,234.3373,125.6579,0,U,31118,999,2729,.45804653E-4,.233E-5,0
PISAT,2016-059B,2026-06-14T06:47:44.249856,14.68979047,.0028148,97.8179,165.8607,212.2914,147.6570,0,U,41784,999,51931,.13956084E-3,.775E-5,0
FLYING LAPTOP,2017-042G,2026-06-14T07:39:41.306976,15.01129762,.00195319,97.4670,320.9621,131.2063,229.0850,0,U,42831,999,48602,.30211675E-3,.3827E-4,0
SALSAT,2020-068K,2026-06-14T00:08:22.352064,15.29759103,.0008281,97.8843,167.8766,321.5879,38.4769,0,U,46495,999,31487,.28632437E-3,.8178E-4,0
