SAUDISAT 1C (SO-50)     
1 27607U 02058C   26165.25570183  .00000931  00000+0  12707-3 0  9990
2 27607  64.5509 138.0554 0075327 263.0161  96.2373 14.83041207264026
SAUDISAT 2              
1 28371U 04025F   26165.28138964  .00000236  00000+0  63781-4 0  9992
2 28371  98.5507 165.1882 0023699 307.6002  52.3044 14.56682460165322
SAUDISAT 3              
1 31118U 07012B   26165.13058542  .00000233  00000+0  45805-4 0  9995
2 31118  98.1455 115.5291 0013482 234.3373 125.6579 14.71424084 27295
PISAT                   
1 41784U 16059B   26165.28315104  .00000775  00000+0  13956-3 0  9994
2 41784  97.8179 165.8607 0028148 212.2914 147.6570 14.68979047519318
FLYING LAPTOP           
1 42831U 17042G   26165.31922809  .00003827  00000+0  30212-3 0  9996
2 42831  97.4670 320.9621 0019531 131.2063 229.0850 15.01129762486021
SALSAT                  
1 46495U 20068K   26165.00581426  .00008178  00000+0  28632-3 0  9997
2 46495  97.8843 167.8766 0008281 321.5879  38.4769 15.29759103314876
